ORBCOMM FM103           
1 40091U 14040F   25283.08682465  .00000749  00000+0  19656-3 0  9991
2 40091  47.0048 195.1078 0001184  72.1629 287.9386 14.58368298580876
ORBCOMM FM114           
1 41179U 15081A   25282.89967403  .00000733  00000+0  19316-3 0  9997
2 41179  47.0019 104.9775 0002008 167.8254 192.2680 14.58402451521214
ORBCOMM FM119           
1 41180U 15081B   25282.61885349  .00000873  00000+0  22319-3 0  9999
2 41180  47.0020  15.6481 0001836 232.1709 127.9011 14.58344461522422
ORBCOMM FM105           
1 41181U 15081C   25282.70426338  .00000388  00000+0  15387-3 0  9997
2 41181  47.0028  31.3482 0001284 137.8965 222.2014 14.45322249517319
ORBCOMM FM110           
1 41182U 15081D   25282.89150515  .00000891  00000+0  22658-3 0  9997
2 41182  47.0009 104.5465 0002145 357.2496   2.8378 14.58432275521086
ORBCOMM FM118           
1 41183U 15081E   25282.85570594  .00000594  00000+0  16350-3 0  9999
2 41183  47.0033 104.9815 0002926 312.4712  47.5926 14.58399066521184
ORBCOMM FM112           
1 41184U 15081F   25282.65542820  .00001103  00000+0  27169-3 0  9996
2 41184  47.0004  14.5211 0001456 184.9916 175.0956 14.58455893522377
ORBCOMM FM113           
1 41185U 15081G   25282.70101351  .00001119  00000+0  27522-3 0  9993
2 41185  47.0021  14.6501 0001559 202.7213 157.3604 14.58467328522361
